ORBCOMM FM20            
1 25416U 98046D   24301.18163747  .00004101  00000+0  14428-2 0  9998
2 25416  44.9929 203.9271 0000571   1.6805 358.4044 14.36116512370798
ORBCOMM FM15            
1 25418U 98046F   24300.93044521  .00004495  00000+0  15458-2 0  9990
2 25418  44.9960 203.9174 0002721 207.4531 152.6173 14.37096755370679
ORBCOMM FM14            
1 25419U 98046G   24300.93033635  .00004686  00000+0  16011-2 0  9993
2 25419  44.9948 202.7458 0001562 191.0153 169.0661 14.37357066370633
ORBCOMM FM13            
1 25420U 98046H   24300.86286689  .00004316  00000+0  15066-2 0  9995
2 25420  44.9962 209.0073 0003662 185.1085 174.9725 14.36416083370804
ORBCOMM FM21            
1 25475U 98053A   24301.17532940  .00004567  00000+0  15972-2 0  9996
2 25475  45.0079 292.1544 0001350 286.9852  73.0848 14.36241944364063
ORBCOMM FM22            
1 25476U 98053B   24301.15056133  .00005695  00000+0  19508-2 0  9992
2 25476  45.0072 288.7575 0000496 158.1965 201.8904 14.36967115364099
